[
  {
    "_id": "569859401da1e52d40d2dc09",
    "zipcode": "614200",
    "address": "四川省峨眉山市新民街25号三台山社区卫生服务站（圆通快递对面）",
    "phone": 15884358915,
    "name": "周雪",
    "user": "5694aa470407ae0620b13ff8",
    "plan": "王宝强1",
    "card": "56921419d143f132622bc615",
    "at": "2016-01-15T02:28:16.379Z",
    "id": "569859401da1e52d40d2dc09"
  },
  {
    "_id": "56986db352511056423eebcf",
    "zipcode": "215100",
    "address": "苏州市吴中区胜浦镇胜浦人家大酒店",
    "phone": 18225584722,
    "name": "高李鹏",
    "user": "5694be548f0723bc483348dd",
    "plan": "王宝强3",
    "card": "56921419d143f132622bc615",
    "at": "2016-01-15T03:55:31.278Z",
    "id": "56986db352511056423eebcf"
  },
  {
    "_id": "56986db3772a924942755658",
    "zipcode": "215100",
    "address": "苏州市吴中区胜浦镇胜浦人家大酒店",
    "phone": 18225584722,
    "name": "高李鹏",
    "user": "5694be548f0723bc483348dd",
    "plan": "王宝强3",
    "card": "56921419d143f132622bc615",
    "at": "2016-01-15T03:55:31.282Z",
    "id": "56986db3772a924942755658"
  },
  {
    "_id": "56986db3ef58d7027ccfdba8",
    "zipcode": "215100",
    "address": "苏州市吴中区胜浦镇胜浦人家大酒店",
    "phone": 18225584722,
    "name": "高李鹏",
    "user": "5694be548f0723bc483348dd",
    "plan": "王宝强3",
    "card": "56921419d143f132622bc615",
    "at": "2016-01-15T03:55:31.268Z",
    "id": "56986db3ef58d7027ccfdba8"
  },
  {
    "_id": "569881dc7996983c42c73956",
    "zipcode": "121400",
    "address": "辽宁省锦州市黑山县富贵佳园1期4号楼4单元502",
    "phone": 18304030413,
    "name": "王雨婷",
    "user": "569881a57996983c42c73954",
    "plan": "王宝强1",
    "card": "56921419d143f132622bc615",
    "at": "2016-01-15T05:21:32.210Z",
    "id": "569881dc7996983c42c73956"
  },
  {
    "_id": "56988b8ea91a4c5846e652b2",
    "zipcode": "100020",
    "address": "北京市朝阳区朝阳门外大街朝外MEN写字楼A座25层",
    "phone": 18950011007,
    "name": "陈文超",
    "user": "56988af84e9a082f42dd0228",
    "plan": "王宝强1",
    "card": "56921419d143f132622bc615",
    "at": "2016-01-15T06:02:54.452Z",
    "id": "56988b8ea91a4c5846e652b2"
  },
  {
    "_id": "56988bd95609eaea23414f0e",
    "zipcode": "611330",
    "address": "四川省成都市大邑县三岔镇白衣村3组",
    "phone": 18980593558,
    "name": "姚超",
    "user": "56988b9365e3d03524dfb848",
    "plan": "王宝强1",
    "card": "56921419d143f132622bc615",
    "at": "2016-01-15T06:04:09.901Z",
    "id": "56988bd95609eaea23414f0e"
  },
  {
    "_id": "5698fe7030a580d738756598",
    "zipcode": "255000",
    "address": "山东省淄博市张店区柳泉路与联通路交界处东方之珠两岸咖啡",
    "phone": 18606438652,
    "name": "吴杰",
    "user": "5694ab814ccd88c94816404e",
    "plan": "王宝强1",
    "card": "56921419d143f132622bc615",
    "at": "2016-01-15T14:13:04.069Z",
    "id": "5698fe7030a580d738756598"
  },
  {
    "_id": "56999db1beff729e5c43bb27",
    "zipcode": "161005",
    "address": "黑龙江省齐齐哈尔市龙沙区南苑小区15楼3单元302",
    "phone": 13803629179,
    "name": "于佳楠",
    "user": "569499c30407ae0620b13fb5",
    "plan": "王宝强3",
    "card": "56921419d143f132622bc615",
    "at": "2016-01-16T01:32:33.622Z",
    "id": "56999db1beff729e5c43bb27"
  },
  {
    "_id": "5699ad481641fea86744a967",
    "zipcode": "523000",
    "address": "广东省东莞市道窖镇大罗沙村三巷四号",
    "phone": 13650028117,
    "name": "陈敏晶",
    "user": "5694b44961f0a5ad1f1695e2",
    "plan": "王宝强1",
    "card": "56921419d143f132622bc615",
    "at": "2016-01-16T02:39:04.489Z",
    "id": "5699ad481641fea86744a967"
  },
  {
    "_id": "5699ad481f8a82cf5cda3e64",
    "zipcode": "523000",
    "address": "广东省东莞市道窖镇大罗沙村三巷四号",
    "phone": 13650028117,
    "name": "陈敏晶",
    "user": "5694b44961f0a5ad1f1695e2",
    "plan": "王宝强1",
    "card": "56921419d143f132622bc615",
    "at": "2016-01-16T02:39:04.587Z",
    "id": "5699ad481f8a82cf5cda3e64"
  },
  {
    "_id": "5699ad48d24513c26760d1a4",
    "zipcode": "523000",
    "address": "广东省东莞市道窖镇大罗沙村三巷四号",
    "phone": 13650028117,
    "name": "陈敏晶",
    "user": "5694b44961f0a5ad1f1695e2",
    "plan": "王宝强1",
    "card": "56921419d143f132622bc615",
    "at": "2016-01-16T02:39:04.272Z",
    "id": "5699ad48d24513c26760d1a4"
  },
  {
    "_id": "5699dd4acf41dd8a670f168b",
    "zipcode": "547500",
    "address": "广西省河池市巴马县盘桥幼儿园",
    "phone": 13877976657,
    "name": "罗道晟",
    "user": "56949ab7e2cc9ea1481d461c",
    "plan": "王宝强1",
    "card": "56921419d143f132622bc615",
    "at": "2016-01-16T06:03:54.594Z",
    "id": "5699dd4acf41dd8a670f168b"
  },
  {
    "_id": "5699e71bd24513c26760d1ac",
    "zipcode": "224200",
    "address": "江苏省东台市新曹农场孙东分场22大队9号",
    "phone": 13770253165,
    "name": "李晓兰",
    "user": "5699dd541f8a82cf5cda3e67",
    "plan": "王宝强3",
    "card": "56921419d143f132622bc615",
    "at": "2016-01-16T06:45:47.303Z",
    "id": "5699e71bd24513c26760d1ac"
  },
  {
    "_id": "569a069d1641fea86744a973",
    "zipcode": "100037",
    "address": "北京市西城区展览路31楼1门10号",
    "phone": 13522127098,
    "name": "王萍",
    "user": "569a0652ef2af674674262c5",
    "plan": "王宝强1",
    "card": "56921419d143f132622bc615",
    "at": "2016-01-16T09:00:13.904Z",
    "id": "569a069d1641fea86744a973"
  },
  {
    "_id": "569a0e771f8a82cf5cda3e70",
    "zipcode": "210008",
    "address": "南京市鼓楼区云南路15-2-702",
    "phone": 13585202755,
    "name": "史嘉懿",
    "user": "569a0e486f5cd9995ca164da",
    "plan": "王宝强1",
    "card": "56921419d143f132622bc615",
    "at": "2016-01-16T09:33:43.821Z",
    "id": "569a0e771f8a82cf5cda3e70"
  },
  {
    "_id": "569a0f38ef2af674674262c9",
    "zipcode": "210008",
    "address": "南京市鼓楼区云南路15-2-702",
    "phone": 13585202755,
    "name": "宋志勤",
    "user": "569a0ef01641fea86744a975",
    "plan": "王宝强3",
    "card": "56921419d143f132622bc615",
    "at": "2016-01-16T09:36:56.317Z",
    "id": "569a0f38ef2af674674262c9"
  },
  {
    "_id": "569a1937b6278be95c893037",
    "zipcode": "053400",
    "address": "河北省衡水市武邑县名门华都4单元1号楼302",
    "phone": 15612823698,
    "name": "吕彩璐",
    "user": "569a18eacf41dd8a670f1691",
    "plan": "王宝强2",
    "card": "56921419d143f132622bc615",
    "at": "2016-01-16T10:19:35.773Z",
    "id": "569a1937b6278be95c893037"
  },
  {
    "_id": "569a4b89b6278be95c893038",
    "zipcode": "215009",
    "address": "江苏省无锡市锡山区东港镇东湖唐下庄村41号",
    "phone": 15806173805,
    "name": "孙静",
    "user": "56949c570407ae0620b13fc9",
    "plan": "王宝强1",
    "card": "56921419d143f132622bc615",
    "at": "2016-01-16T13:54:17.693Z",
    "id": "569a4b89b6278be95c893038"
  }
]